     3.04           N: GNSS NAV DATA    M: Mixed            RINEX VERSION / TYPE
CONVBIN demo5 b34g                      20250506 140019 UTC PGM / RUN BY / DATE 
log: 2025-4-26_132532_serial-COM3_prise_statique_V1.uc2     COMMENT             
format: u-blox UBX                                          COMMENT             
format: u-blox UBX                                          COMMENT             
log: 2025-4-26_132532_serial-COM3_prise_statique_V1.uc2     COMMENT             
                                                            END OF HEADER       
E36 2025 04 26 11 20 00 -.385947409086D-03 -.544275735592D-11  .000000000000D+00
      .430000000000D+02 -.181531250000D+03  .229795286182D-08  .234170784736D+00
     -.841915607452D-05  .295447185636D-03  .129844993353D-04  .544061798668D+04
      .559200000000D+06  .465661287308D-07  .252711395783D+01  .335276126862D-07
      .999753143434D+00  .750937500000D+02  .697493870791D-01 -.531522140031D-08
     -.550737226130D-09  .513000000000D+03  .236300000000D+04  .000000000000D+00
      .312000000000D+01  .000000000000D+00  .372529029846D-08  .442378222942D-08
      .559864000000D+06  .000000000000D+00
E16 2025 04 26 11 20 00 -.345385051332D-04 -.231636931858D-11  .000000000000D+00
      .430000000000D+02  .221812500000D+03  .305905599339D-08 -.173308781521D+00
      .102669000626D-04  .341410399415D-03  .101644545794D-04  .544062431145D+04
      .559200000000D+06  .707805156708D-07  .427013680228D+00  .223517417908D-07
      .966080700110D+00  .126812500000D+03  .296014283097D+01 -.567345060770D-08
      .516807241382D-09  .513000000000D+03  .236300000000D+04  .000000000000D+00
      .312000000000D+01  .000000000000D+00 -.535510480404D-08 -.419095158577D-08
      .559864000000D+06  .000000000000D+00
E12 2025 04 26 11 20 00 -.139974872582D-02 -.185266912922D-09  .000000000000D+00
      .430000000000D+02 -.159718750000D+03  .236366988491D-08  .144964901730D+01
     -.763125717640D-05  .491703045554D-03  .125132501125D-04  .544060540581D+04
      .559200000000D+06  .223517417908D-07  .252755283033D+01 -.149011611938D-07
      .996664750745D+00  .930312500000D+02  .401737963896D+00 -.525593321643D-08
     -.552523014801D-09  .513000000000D+03  .236300000000D+04  .000000000000D+00
      .312000000000D+01  .000000000000D+00 -.135041773319D-07 -.132713466883D-07
      .559864000000D+06  .000000000000D+00
E19 2025 04 26 12 50 00  .169119617203D-02  .486863882543D-10  .000000000000D+00
      .520000000000D+02 -.759375000000D+01  .364479467747D-08  .247947879677D+01
     -.415369868279D-06  .415910850279D-03  .212527811527D-05  .544060985565D+04
      .564600000000D+06  .428408384323D-07 -.166308475521D+01  .931322574615D-08
      .969129067361D+00  .298187500000D+03 -.117499091703D+01 -.607025285040D-08
      .528593446610D-10  .513000000000D+03  .236300000000D+04  .000000000000D+00
      .312000000000D+01  .000000000000D+00 -.698491930962D-08 -.721774995327D-08
      .560065000000D+06  .000000000000D+00
C25 2025 04 26 11 00 00  .713620567694D-03  .111635145572D-10  .000000000000D+00
      .100000000000D+01  .212500000000D+02  .388980488313D-08  .391273005748D+00
      .104354694486D-05  .506158103235D-03  .146916136146D-04  .528267164421D+04
      .558000000000D+06 -.111758708954D-07 -.230026131546D+00  .419095158577D-08
      .946280893883D+00  .573750000000D+02  .725121656570D+00 -.673492339374D-08
     -.233224000430D-09  .000000000000D+00  .100700000000D+04  .000000000000D+00
      .200000000000D+01  .000000000000D+00  .800000000000D-09  .800000000000D-09
      .560100000000D+06  .100000000000D+01
E19 2025 04 26 10 50 00  .169084500521D-02  .486437556901D-10  .000000000000D+00
      .400000000000D+02 -.118437500000D+02  .364979488575D-08  .158715226002D+01
     -.581145286560D-06  .415508518927D-03  .231526792049D-05  .544061049080D+04
      .557400000000D+06  .186264514923D-07 -.166304068187D+01 -.745058059692D-07
      .969129275096D+00  .295593750000D+03 -.117529371035D+01 -.606310969571D-08
     -.125005206969D-10  .513000000000D+03  .236300000000D+04  .000000000000D+00
      .312000000000D+01  .000000000000D+00 -.698491930962D-08 -.721774995327D-08
      .560185000000D+06  .000000000000D+00
E30 2025 04 26 11 20 00 -.149061827688D-02 -.405435685025D-10  .000000000000D+00
      .430000000000D+02  .199625000000D+03  .307941398424D-08 -.392575405141D+00
      .931322574615D-05  .394445843995D-03  .117979943752D-04  .544062987328D+04
      .559200000000D+06  .106170773506D-06  .433359075694D+00 -.596046447754D-07
      .961947722470D+00  .848750000000D+02  .121309955410D+01 -.572809574104D-08
      .493234830925D-09  .513000000000D+03  .236300000000D+04  .000000000000D+00
      .312000000000D+01  .000000000000D+00 -.232830643654D-08 -.232830643654D-08
      .560215000000D+06  .000000000000D+00
E25 2025 04 26 11 30 00  .165921519510D-04  .326849658450D-12  .000000000000D+00
      .440000000000D+02  .219218750000D+03  .315263131975D-08 -.276939442894D+01
      .101942569017D-04  .320175895467D-04  .105630606413D-04  .544061625290D+04
      .559800000000D+06  .316649675369D-07  .430957882920D+00  .745058059692D-08
      .964166824367D+00  .116031250000D+03 -.102900794428D+01 -.571166648526D-08
      .532165023952D-09  .513000000000D+03  .236300000000D+04  .000000000000D+00
      .312000000000D+01  .000000000000D+00  .162981450558D-08  .186264514923D-08
      .560464000000D+06  .000000000000D+00
E10 2025 04 26 11 30 00 -.705595302861D-03 -.255795384874D-11  .000000000000D+00
      .440000000000D+02 -.156937500000D+03  .233366863524D-08  .178232173800D+00
     -.741705298424D-05  .213781837374D-03  .123716890812D-04  .544060735512D+04
      .559800000000D+06 -.372529029846D-08  .252520910830D+01 -.130385160446D-07
      .999584486535D+00  .963750000000D+02  .138063454175D+01 -.523557522558D-08
     -.543236913712D-09  .513000000000D+03  .236300000000D+04  .000000000000D+00
      .312000000000D+01  .000000000000D+00 -.232830643654D-08 -.186264514923D-08
      .560464000000D+06  .000000000000D+00
E36 2025 04 26 11 30 00 -.385950610507D-03 -.542854650121D-11  .000000000000D+00
      .440000000000D+02 -.179437500000D+03  .229152402260D-08  .307747092365D+00
     -.831857323647D-05  .295614823699D-03  .130385160446D-04  .544061856461D+04
      .559800000000D+06  .447034835815D-07  .252711077014D+01  .335276126862D-07
      .999752820129D+00  .740000000000D+02  .705579931036D-01 -.531450708484D-08
     -.551808699333D-09  .513000000000D+03  .236300000000D+04  .000000000000D+00
      .312000000000D+01  .000000000000D+00  .372529029846D-08  .442378222942D-08
      .560464000000D+06  .000000000000D+00
E16 2025 04 26 11 30 00 -.345398439094D-04 -.231636931858D-11  .000000000000D+00
      .440000000000D+02  .222656250000D+03  .305584157378D-08 -.991559422659D-01
      .102985650301D-04  .341533101164D-03  .101365149021D-04  .544062459946D+04
      .559800000000D+06  .689178705215D-07  .427010287721D+00  .149011611938D-07
      .966080973676D+00  .127656250000D+03  .296037499754D+01 -.567845081598D-08
      .518593030053D-09  .513000000000D+03  .236300000000D+04  .000000000000D+00
      .312000000000D+01  .000000000000D+00 -.535510480404D-08 -.419095158577D-08
      .560464000000D+06  .000000000000D+00
E12 2025 04 26 11 30 00 -.139985978603D-02 -.185252702067D-09  .000000000000D+00
      .440000000000D+02 -.162562500000D+03  .236116978077D-08  .152338597235D+01
     -.778585672379D-05  .491496874020D-03  .124517828226D-04  .544060615730D+04
      .559800000000D+06  .242143869400D-07  .252754971578D+01 -.745058059692D-08
      .996664412810D+00  .941562500000D+02  .402386503276D+00 -.525986195151D-08
     -.554665961207D-09  .513000000000D+03  .236300000000D+04  .000000000000D+00
      .312000000000D+01  .000000000000D+00 -.135041773319D-07 -.132713466883D-07
      .560464000000D+06  .000000000000D+00
C22 2025 04 26 11 00 00  .307969050482D-03  .771915864561D-11  .000000000000D+00
      .100000000000D+01  .689375000000D+02  .375622789054D-08 -.934414572860D+00
      .347476452589D-05  .767775229178D-03  .672880560160D-05  .528262087440D+04
      .558000000000D+06  .507570803165D-07 -.229362535813D+01 -.149011611938D-07
      .982236196000D+00  .231984375000D+03  .162095837748D+00 -.686135723164D-08
      .736459247912D-09  .000000000000D+00  .100700000000D+04  .000000000000D+00
      .200000000000D+01  .000000000000D+00  .140000000000D-07  .140000000000D-07
      .560520000000D+06  .100000000000D+01
G13 2025 04 26 12 00 00  .700714066625D-03  .227373675443D-12  .000000000000D+00
      .130000000000D+02 -.105312500000D+02  .481555773017D-08  .474087016381D+00
     -.648200511932D-06  .906699872576D-02  .409595668316D-05  .515367508316D+04
      .561600000000D+06 -.447034835815D-07 -.163011349437D+01  .577419996262D-07
      .973145250011D+00  .308187500000D+03  .953450498857D+00 -.849963975840D-08
     -.664313385605D-10  .100000000000D+01  .236300000000D+04  .000000000000D+00
      .200000000000D+01  .000000000000D+00 -.116415321827D-07  .130000000000D+02
      .560586000000D+06  .400000000000D+01
E24 2025 04 26 11 30 00 -.140057480894D-02 -.215010231841D-10  .000000000000D+00
      .440000000000D+02  .219031250000D+03  .311048670711D-08  .220097949933D+01
      .100675970316D-04  .592763652094D-03  .996887683868D-05  .544062548828D+04
      .559800000000D+06  .521540641785D-07  .433438766693D+00  .447034835815D-07
      .961966231309D+00  .128562500000D+03  .105751641844D+01 -.568845123254D-08
      .490377569051D-09  .513000000000D+03  .236300000000D+04  .000000000000D+00
      .312000000000D+01  .000000000000D+00 -.698491930962D-08 -.791624188423D-08
      .560674000000D+06  .000000000000D+00
